C/2020 K8 (Catalina-ATLAS),h,09/14.5308/2020,31.4225,181.5304,260.0259,1.000154,0.474136,2000,15.0,3.2
# From MPEC 2021-BE3
P/2020 K9 (Lemmon-PANSTARRS),e,23.2098,166.2398,196.9062,4.199288,0.1145356,0.32140341,28.0688,10/15.0/2021,2000,g 12.5,4.0
# From MPEC 2020-K19
P/2020 M1 (PANSTARRS),e,8.6739,142.8570,70.1778,5.228828,0.0824323,0.48319339,54.0545,10/15.0/2021,2000,g 14.5,4.0
# From MPEC 2021-N06
C/2020 M3 (ATLAS),e,23.4716,71.2361,328.4594,26.90061,0.0070642,0.95286037,2.5032,10/15.0/2021,2000,g 14.5,4.0
# From MPEC 2021-R75
A/2020 M4,e,160.1271,348.6225,104.6514,21421,0.0000003,0.99972211,0.0000,11/24.0375/2020,2000,g 14.5,2.0
# From MPEC 2021-TD0
C/2020 M5 (ATLAS),h,08/19.8784/2021,93.2236,352.0940,126.3383,1.000096,3.004345,2000,9.0,4.0
# From MPEC 2021-N06
C/2020 N1 (PANSTARRS),h,03/12.2173/2021,29.7034,279.9776,186.7639,1.000513,1.320543,2000,12.5,4.0
# From MPEC 2021-P47
C/2020 N2 (ATLAS),e,161.0347,257.0891,331.2551,102.2159,0.0009537,0.98244590,0.0000,08/23.7404/2020,2000,g 16.0,3.2
# From MPEC 2020-SI8
P/2020 O1 (Lemmon-PANSTARRS),e,5.2259,175.9766,104.5329,2.644551,0.2291798,0.11943363,121.5452,10/15.0/2021,2000,g 15.5,4.0
# From MPEC 2021-TD0
C/2020 O2 (Amaral),h,08/28.5567/2021,71.7485,256.7561,10.3016,1.002460,4.862172,2000,8.0,3.2
# From MPEC 2020-SI8
P/2020 O3 (PANSTARRS),e,8.4414,266.8360,81.5858,4.652063,0.0982281,0.10428254,25.3058,10/15.0/2021,2000,g 12.0,4.0
# From MPEC 2021-BE3
C/2020 P1 (NEOWISE),h,10/20.1876/2020,45.0740,53.5249,8.8895,1.000266,0.341923,2000,14.0,3.2
# From MPEC 2021-S45
C/2020 P3 (ATLAS),e,61.8853,19.4791,82.2508,11251,0.0000008,0.99939451,0.0000,04/20.8756/2021,2000,g  6.0,4.0
# From MPEC 2021-TD0
C/2020 PV6 (PANSTARRS),e,128.2393,329.1439,71.3809,41.71118,0.0036587,0.94496339,0.0695,10/15.0/2021,2000,g 10.0,4.0
# From MPEC 2021-N06
C/2020 Q1 (Borisov),e,142.9151,52.4173,9.9013,58.81636,0.0021850,0.97764578,0.0000,08/14.6080/2020,2000,g 14.0,4.0
# From MPEC 2021-TD0
C/2020 R2 (PANSTARRS),e,53.2260,195.0922,211.7221,413.6347,0.0001172,0.98865680,0.0000,02/24.3931/2022,2000,g  9.0,4.0
# From MPEC 2021-S45
C/2020 R4 (ATLAS),e,164.4633,323.2735,46.7196,98.10017,0.0010144,0.98951366,0.0000,03/01.9468/2021,2000,g 13.5,4.0
# From MPEC 2020-W26
P/2020 R5 (PANSTARRS),e,11.4529,272.9756,82.4120,4.981913,0.0886359,0.31470048,44.6961,10/15.0/2021,2000,g  9.5,6.0
# From MPEC 2020-W26
C/2020 R6 (Rankin),e,82.8204,12.1743,271.9545,529.1252,0.0000810,0.99409055,0.0000,09/10.0593/2019,2000,g 11.0,4.0
# From MPEC 2021-TD0
C/2020 R7 (ATLAS),e,114.8924,268.2788,347.8262,13995,0.0000006,0.99978877,0.0000,09/16.2243/2022,2000,g  7.0,3.2
# From MPEC 2021-BE3
P/2020 S1 (PANSTARRS),e,13.7339,129.4595,254.9080,5.983399,0.0673414,0.50738547,18.2445,10/15.0/2021,2000,g 14.0,4.0
# From MPEC 2021-BE3
C/2020 S2 (PANSTARRS),e,22.3983,197.6765,202.2831,10.19281,0.0302875,0.82771533,8.9962,10/15.0/2021,2000,g 17.0,4.0
# From MPEC 2021-TD0
C/2020 S3 (Erasmus),e,19.8880,222.9025,349.9278,185.7273,0.0003894,0.99785819,0.0000,12/12.6892/2020,2000,g 13.5,3.2
# From MPEC 2021-TD0
C/2020 S4 (PANSTARRS),h,02/09.4479/2023,20.5740,117.7179,21.0248,1.000091,3.369299,2000,8.5,3.2
# From MPEC 2021-BE3
P/2020 S5 (PANSTARRS),e,12.3538,315.9996,53.0724,4.050524,0.1209030,0.33855624,52.2766,10/15.0/2021,2000,g 14.5,4.0
# From MPEC 2021-P47
P/2020 S6 (Leonard),e,15.4589,242.5604,176.6616,3.599852,0.1443036,0.47924717,46.9515,10/15.0/2021,2000,g 16.0,4.0
# From MPEC 2021-BE3
P/2020 S7 (PANSTARRS),e,16.0921,328.0180,40.4479,5.024601,0.0875088,0.41061787,28.9429,10/15.0/2021,2000,g 14.5,4.0
# From MPEC 2021-P47
C/2020 S8 (Lemmon),e,108.5224,24.0533,160.3351,276.9031,0.0002139,0.99146336,0.0000,04/10.9328/2021,2000,g 12.5,4.0
# From MPEC 2021-TD0
C/2020 T2 (Palomar),e,27.8728,83.0481,150.3883,311.1816,0.0001795,0.99339704,0.0000,07/11.1583/2021,2000,g 11.0,3.2
# From MPEC 2021-N06
P/2020 T3 (PANSTARRS),e,7.2954,74.0129,357.0375,3.517426,0.1494055,0.59163456,39.9705,10/15.0/2021,2000,g 18.0,3.2
# From MPEC 2021-N06
C/2020 T4 (PANSTARRS),h,07/05.2562/2021,83.8145,50.6184,79.6079,1.000055,2.191853,2000,13.0,3.2
# From MPEC 2021-BE3
C/2020 T5 (Lemmon),e,66.5953,237.8611,90.3031,845.0312,0.0000401,0.99776428,0.0000,10/09.6244/2020,2000,g 16.0,4.0
# From MPEC 2021-N06
P/2020 U2 (PANSTARRS),e,6.4213,342.8995,84.6419,3.777855,0.1342259,0.51066525,39.3671,10/15.0/2021,2000,g 18.0,4.0
# From MPEC 2021-S45
C/2020 U3 (Rankin),e,30.1745,282.6795,124.2686,65.29859,0.0018679,0.96514182,0.4688,10/15.0/2021,2000,g 15.0,4.0
# From MPEC 2021-TD0
C/2020 U4 (PANSTARRS),h,04/07.8392/2022,167.0364,120.0176,69.5221,1.001727,5.353825,2000,7.0,4.0
# From MPEC 2021-TD0
C/2020 U5 (PANSTARRS),e,97.2730,107.3401,75.4122,7212,0.0000016,0.99947917,0.0000,04/27.8585/2022,2000,g  8.0,4.0
# From MPEC 2021-R75
C/2020 V2 (ZTF),h,05/08.4579/2023,131.6060,212.3550,162.3908,1.001308,2.228357,2000,4.9,4.0
# From MPEC 2021-N06
P/2020 V3 (PANSTARRS),e,23.0315,198.2685,249.3152,8.368023,0.0407164,0.25547710,10.1199,10/15.0/2021,2000,g  8.3,4.0
# From MPEC 2021-TD0
P/2020 V4 (Rankin),e,14.2428,203.5013,256.9896,9.346257,0.0344943,0.44912952,3.0770,10/15.0/2021,2000,g  9.0,4.0
# From MPEC 2021-BE3
P/2020 W1 (Rankin),e,10.7917,124.2609,264.8606,7.201655,0.0509983,0.26568912,28.4418,10/15.0/2021,2000,g 10.0,4.0
# From MPEC 2021-BE3
C/2020 W5 (Lemmon),h,11/30.0831/2020,88.5833,75.5052,24.4790,1.000810,3.364214,2000,15.0,4.0
# From MPEC 2021-P47
P/2020 X1 (ATLAS),e,31.6964,56.0224,323.2669,4.526463,0.1023447,0.36546156,46.2224,10/15.0/2021,2000,g 13.0,4.0
# From MPEC 2021-N06
C/2020 X2 (ATLAS),e,18.1897,105.4561,347.3385,16.40158,0.0148380,0.76659823,4.9441,10/15.0/2021,2000,g 10.6,4.0
# From MPEC 2020-Y19
C/2020 X3 (SOHO),p,12/14.9459/2020,143.9368,77.3583,0.005012,357.1619,2000,15.0,2.0
# From MPEC 2021-S45
C/2020 X4 (Leonard),e,80.5628,161.8904,140.0781,43.70679,0.0034110,0.88081813,1.1361,10/15.0/2021,2000,g  9.0,4.0
# From MPEC 2021-R75
C/2020 Y2 (ATLAS),e,101.2942,26.5096,266.0980,1214,0.0000233,0.99741978,0.0000,06/17.6588/2022,2000,g  6.5,4.0
# From MPEC 2021-R75
C/2020 Y3 (ATLAS),e,83.1006,191.4320,342.0339,149.2986,0.0005403,0.98661017,0.0000,12/03.4627/2020,2000,g 13.5,4.0
# From MPEC 2021-TD0
C/2021 A1 (Leonard),h,01/03.3020/2022,132.6848,255.8943,225.0918,1.000063,0.615263,2000,8.5,4.0
# From MPEC 2021-S45
C/2021 A2 (NEOWISE),e,106.9777,125.2368,338.8354,251.9742,0.0002464,0.99439321,0.0000,01/22.6180/2021,2000,g 13.5,4.0
# From MPEC 2021-R75
C/2021 A4 (NEOWISE),e,111.5695,307.0863,204.6698,42.97817,0.0034981,0.97334282,0.0000,03/20.0309/2021,2000,g 16.0,4.0
# From MPEC 2021-BE3
P/2021 A5 (PANSTARRS),e,18.1882,328.7670,61.1416,3.046570,0.1853478,0.13975161,62.5215,10/15.0/2021,2000,g 15.0,4.0
# From MPEC 2021-P47
C/2021 A6 (PANSTARRS),e,75.6128,164.0790,351.7339,11760,0.0000008,0.99932576,0.0000,05/04.7896/2021,2000,g  7.0,4.0
# From MPEC 2021-N06
C/2021 A7 (NEOWISE),e,78.1499,154.5192,356.0579,5995,0.0000021,0.99967178,0.0000,07/15.3145/2021,2000,g 10.0,4.0
# From MPEC 2021-P47
C/2021 A9 (PANSTARRS),h,12/01.4197/2023,158.0286,314.8409,211.4703,1.004253,7.758607,2000,6.0,4.0
# From MPEC 2021-N06
C/2021 A10 (NEOWISE),e,151.5277,188.3492,82.2797,93.46800,0.0010907,0.98642559,0.0000,03/15.2706/2021,2000,g 19.0,4.0
# From MPEC 2021-O56
C/2021 B2 (PANSTARRS),e,38.0930,120.5553,334.9656,345.8521,0.0001532,0.99273378,0.0000,05/04.2582/2021,2000,g 14.0,4.0
# From MPEC 2021-N06
C/2021 B3 (NEOWISE),e,119.4855,67.2872,293.5565,34.92443,0.0047754,0.93814860,1.0415,10/15.0/2021,2000,g 13.5,4.0
# From MPEC 2021-P47
C/2021 C1 (Rankin),e,143.0425,186.8941,336.3098,40650,0.0000001,0.99991436,0.0000,12/07.1376/2020,2000,g 11.5,4.0
# From MPEC 2021-P47
P/2021 C2 (PANSTARRS),e,21.9272,66.4869,78.7900,9.536795,0.0334657,0.48724983,7.7895,10/15.0/2021,2000,g 12.0,4.0
# From MPEC 2021-N06
C/2021 C3 (Catalina),e,122.1641,181.9233,357.1448,63.26739,0.0019585,0.96402051,0.4790,10/15.0/2021,2000,g 14.0,4.0
# From MPEC 2021-P47
C/2021 C4 (ATLAS),e,132.8463,194.2753,320.2360,9330,0.0000011,0.99951724,0.0000,01/17.1065/2021,2000,g  9.0,4.0
# From MPEC 2021-N06
C/2021 C5 (PANSTARRS),e,50.7875,323.6909,270.9178,5520,0.0000024,0.99941276,0.0000,02/11.0173/2023,2000,g  9.0,4.0
# From MPEC 2021-N06
C/2021 C6 (Lemmon),h,11/13.3115/2021,164.6261,332.1554,203.5595,1.002021,3.271345,2000,12.0,4.0
# From MPEC 2021-N06
C/2021 D1 (SWAN),e,31.4600,311.2712,72.2271,97.29318,0.0010270,0.99073112,0.0000,02/27.6194/2021,2000,g 13.0,4.0
# From MPEC 2021-TD0
C/2021 D2 (ZTF),h,02/03.9855/2022,83.8313,305.6766,125.0306,1.001269,2.946282,2000,9.0,4.0
# From MPEC 2021-N06
A/2021 E2,e,167.4880,190.8150,342.4617,235.8876,0.0002720,0.99030004,0.0000,12/10.4745/2020,2000,g 15.0,2.0
# From MPEC 2021-TD0
C/2021 E3 (ZTF),h,06/11.9152/2022,112.5620,104.4651,228.8458,1.000775,1.777430,2000,8.5,4.0
# From MPEC 2021-P47
A/2021 E4,e,116.3605,171.1732,48.2840,722.6235,0.0000507,0.99352921,0.0000,04/25.3641/2022,2000,g 13.5,2.0
# From MPEC 2021-R75
A/2021 F1,e,107.3230,203.4498,146.8187,237.8817,0.0002686,0.99581500,0.0000,04/06.8730/2022,2000,g 17.5,2.0
# From MPEC 2021-J72
C/2021 G1 (Leonard),e,131.5656,270.6941,107.4798,75.20002,0.0015114,0.95447280,0.1281,10/15.0/2021,2000,g 14.0,4.0
# From MPEC 2021-TD0
C/2021 G2 (Atlas),e,48.4743,221.1318,343.3803,4041,0.0000038,0.99876843,0.0000,09/10.0103/2024,2000,g  8.5,2.0
# From MPEC 2021-M86
C/2021 G3 (PANSTARRS),h,10/18.6401/2021,102.8833,147.4188,10.6520,1.001120,5.181138,2000,10.5,4.0
# From MPEC 2021-TD0
P/2021 HS (PANSTARRS),e,12.1711,262.3907,46.0862,4.195448,0.1146929,0.81016621,7.9841,10/15.0/2021,2000,g 22.0,4.0
# From MPEC 2021-R75
C/2021 J1 (Maury-Attard),e,92.7080,88.3148,147.3038,26.23615,0.0073342,0.93366656,1.7424,10/15.0/2021,2000,g 15.5,4.0
# From MPEC 2021-R75
C/2021 J2 (PANSTARRS),e,156.2077,23.3289,172.0597,117.1151,0.0007777,0.95981122,0.0175,10/15.0/2021,2000,g 12.0,4.0
# From MPEC 2021-S45
P/2021 J3 (ATLAS),e,14.5593,111.2241,125.8567,8.939502,0.0368752,0.45057605,30.7293,10/15.0/2021,2000,g  7.0,4.0
# From MPEC 2021-TD0
